GSAT0101 (PRN E11)      
1 37846U 11060A   23305.36865921 -.00000106  00000+0  00000+0 0  9995
2 37846  57.1145   7.7284 0000843 316.0155  44.0332  1.70475911 74773
GSAT0102 (PRN E12)      
1 37847U 11060B   23308.36179326 -.00000102  00000+0  00000+0 0  9992
2 37847  57.1156   7.6473 0002939 298.4648 144.6805  1.70475406 74954
GSAT0103 (PRN E19)      
1 38857U 12055A   23307.75408930  .00000054  00000+0  00000+0 0  9992
2 38857  55.3083 127.8308 0002077 238.7059 121.3061  1.70473752 68842
GSAT0104 (PRN E20)      
1 38858U 12055B   23308.31004494  .00000058  00000+0  00000+0 0  9997
2 38858  55.3087 127.8171 0001441 144.5061 215.5370  1.70473990 68827
GSAT0201 (PRN E18)      
1 40128U 14050A   23307.17135004 -.00000070  00000+0  00000+0 0  9997
2 40128  49.8819 312.1717 1606922 142.6392 229.7166  1.85519573 60565
GSAT0202 (PRN E14)      
1 40129U 14050B   23305.27455011 -.00000078  00000+0  00000+0 0  9998
2 40129  49.9023 311.3203 1604994 143.3778 228.7631  1.85520100 62698
GSAT0203 (PRN E26)      
1 40544U 15017A   23307.49429733 -.00000104  00000+0  00000+0 0  9991
2 40544  56.9111   7.6355 0003780 241.7188 118.2970  1.70476379 53557
GSAT0204 (PRN E22)      
1 40545U 15017B   23308.33470377 -.00000102  00000+0  00000+0 0  9994
2 40545  56.9164   7.6271 0004935 235.5042 124.5031  1.70475787 53578
GSAT0205 (PRN E24)      
1 40889U 15045A   23306.92964970 -.00000020  00000+0  00000+0 0  9995
2 40889  55.3324 248.0512 0004697  12.6448 347.3601  1.70473006 50698
GSAT0206 (PRN E30)      
1 40890U 15045B   23307.15032276 -.00000020  00000+0  00000+0 0  9998
2 40890  55.3310 248.0406 0003042 356.8078   3.1838  1.70472986 50721
GSAT0209 (PRN E09)      
1 41174U 15079A   23307.32161274  .00000051  00000+0  00000+0 0  9994
2 41174  55.3260 127.5502 0001808 347.1431  12.8834  1.70474403 48460
GSAT0208 (PRN E08)      
1 41175U 15079B   23306.95467417  .00000049  00000+0  00000+0 0  9998
2 41175  55.3245 127.5584 0001290   5.3732 354.6590  1.70474312 48876
GSAT0211 (PRN E02)      
1 41549U 16030A   23307.07601081 -.00000020  00000+0  00000+0 0  9992
2 41549  55.4788 248.0293 0004050 330.4666  29.5040  1.70473110 46359
GSAT0210 (PRN E01)      
1 41550U 16030B   23306.19427527 -.00000018  00000+0  00000+0 0  9994
2 41550  55.4786 248.0547 0003336 296.3850  63.5714  1.70473322 46331
GSAT0207 (PRN E07)      
1 41859U 16069A   23307.02883162  .00000049  00000+0  00000+0 0  9995
2 41859  54.9894 127.6155 0001563 309.1559  50.8612  1.70474395 43089
GSAT0212 (PRN E03)      
1 41860U 16069B   23307.47000231  .00000051  00000+0  00000+0 0  9997
2 41860  54.9861 127.6000 0001687  35.1312 324.9114  1.70474547 43344
GSAT0213 (PRN E04)      
1 41861U 16069C   23307.24995105  .00000050  00000+0  00000+0 0  9995
2 41861  54.9893 127.6122 0001779 254.7854 105.2261  1.70473212 43203
GSAT0214 (PRN E05)      
1 41862U 16069D   23307.39723602  .00000051  00000+0  00000+0 0  9994
2 41862  54.9876 127.6022 0000849 242.4768 117.5459  1.70473133 43330
GSAT0215 (PRN E21)      
1 43055U 17079A   23307.29914278 -.00000020  00000+0  00000+0 0  9999
2 43055  55.4548 247.8483 0002736 292.4698  67.4954  1.70473765 36671
GSAT0216 (PRN E25)      
1 43056U 17079B   23308.17760063 -.00000023  00000+0  00000+0 0  9992
2 43056  55.4549 247.8240 0004304 291.4609  68.4884  1.70473917 36670
GSAT0217 (PRN E27)      
1 43057U 17079C   23307.81139427 -.00000022  00000+0  00000+0 0  9996
2 43057  55.4531 247.8331 0004029 305.4248  54.5324  1.70473864 36689
GSAT0218 (PRN E31)      
1 43058U 17079D   23308.03144115 -.00000022  00000+0  00000+0 0  9992
2 43058  55.4533 247.8245 0004680 286.4136  73.5300  1.70473878 36683
GSAT0221 (PRN E15)      
1 43564U 18060A   23306.17144374 -.00000105  00000+0  00000+0 0  9997
2 43564  57.2904   7.6146 0004882 262.7975  97.2021  1.70476146 32838
GSAT0222 (PRN E33)      
1 43565U 18060B   23307.56277767 -.00000103  00000+0  00000+0 0  9993
2 43565  57.2939   7.5782 0004523 230.1452 129.8693  1.70476094 32900
GSAT0219 (PRN E36)      
1 43566U 18060C   23307.19844195 -.00000104  00000+0  00000+0 0  9999
2 43566  57.2929   7.5901 0003936 266.5691  93.4405  1.70476193 32871
GSAT0220 (PRN E13)      
1 43567U 18060D   23307.41890158 -.00000104  00000+0  00000+0 0  9995
2 43567  57.2929   7.5841 0004371 263.5512  96.4535  1.70476222 32867
GSAT0223 (PRN E34)      
1 49809U 21116A   23307.25815822 -.00000104  00000+0  00000+0 0  9993
2 49809  57.2843   7.4841 0003771 216.7146 134.9535  1.70476364 11864
GSAT0224 (PRN E10)      
1 49810U 21116B   23307.08651825 -.00000104  00000+0  00000+0 0  9997
2 49810  57.2853   7.4869 0002854 208.0818 150.7388  1.70476424 11889
